{"type": "FeatureCollection", "features": [ {"type": "Feature", "properties": {"norad_id": 38803, "name": "FENGYUN 1C DEB", "group": "fengyun-1c-debris", "lat": 80.37294717887478, "lon": -83.05743763639896, "alt_km": 772.9732923717702, "timestamp": "2025-12-10T18:57:00.355362+00:00", "meta": {"OBJECT_NAME": "FENGYUN 1C DEB", "OBJECT_ID": "1999-025EUT", "EPOCH": "2025-12-02T23:18:31.375872", "MEAN_MOTION": 14.23518858, "ECCENTRICITY": 0.00644877, "INCLINATION": 99.1384, "RA_OF_ASC_NODE": 340.4394, "ARG_OF_PERICENTER": 63.9975, "MEAN_ANOMALY": 296.7825, "EPHEMERIS_TYPE": 0, "CLASSIFICATION_TYPE": "U", "NORAD_CAT_ID": 38803, "ELEMENT_SET_NO": 999, "REV_AT_EPOCH": 60073, "BSTAR": 0.0027014694, "MEAN_MOTION_DOT": 6.236e-05, "MEAN_MOTION_DDOT": 0}, "tle": {"line1": "1 38803U 99025EUT 25336.97119648  .00006236  00000+0  27015-2 0  9994", "line2": "2 38803  99.1384 340.4394 0064487  63.9975 296.7825 14.23518858600733"}}, "geometry": {"type": "Point", "coordinates": [-83.05743763639896, 80.37294717887478]}}, {"type": "Feature", "properties": {"norad_id": 38809, "name": "FENGYUN 1C DEB", "group": "fengyun-1c-debris", "lat": 76.79373565572935, "lon": -45.07840242579124, "alt_km": 866.120576370945, "timestamp": "2025-12-10T18:57:00.355372+00:00", "meta": {"OBJECT_NAME": "FENGYUN 1C DEB", "OBJECT_ID": "1999-025EUZ", "EPOCH": "2025-12-10T06:43:41.350080", "MEAN_MOTION": 14.18160711, "ECCENTRICITY": 0.0222916, "INCLINATION": 98.5898, "RA_OF_ASC_NODE": 354.5276, "ARG_OF_PERICENTER": 335.1175, "MEAN_ANOMALY": 23.9381, "EPHEMERIS_TYPE": 0, "CLASSIFICATION_TYPE": "U", "NORAD_CAT_ID": 38809, "ELEMENT_SET_NO": 999, "REV_AT_EPOCH": 69171, "BSTAR": 0.00090314, "MEAN_MOTION_DOT": 2.326e-05, "MEAN_MOTION_DDOT": 0}, "tle": {"line1": "1 38809U 99025EUZ 25344.28033970  .00002326  00000+0  90314-3 0  9995", "line2": "2 38809  98.5898 354.5276 0222916 335.1175  23.9381 14.18160711691716"}}, "geometry": {"type": "Point", "coordinates": [-45.07840242579124, 76.79373565572935]}}, {"type": "Feature", "properties": {"norad_id": 38813, "name": "FENGYUN 1C DEB", "group": "fengyun-1c-debris", "lat": 13.426024707595916, "lon": 164.0976440025474, "alt_km": 822.711592907518, "timestamp": "2025-12-10T18:57:00.355382+00:00", "meta": {"OBJECT_NAME": "FENGYUN 1C DEB", "OBJECT_ID": "1999-025EVD", "EPOCH": "2025-12-08T17:08:03.862176", "MEAN_MOTION": 14.20152053, "ECCENTRICITY": 0.00064061, "INCLINATION": 99.3455, "RA_OF_ASC_NODE": 339.6538, "ARG_OF_PERICENTER": 124.1516, "MEAN_ANOMALY": 236.0267, "EPHEMERIS_TYPE": 0, "CLASSIFICATION_TYPE": "U", "NORAD_CAT_ID": 38813, "ELEMENT_SET_NO": 999, "REV_AT_EPOCH": 48193, "BSTAR": 0.00094402438, "MEAN_MOTION_DOT": 1.965e-05, "MEAN_MOTION_DDOT": 0}, "tle": {"line1": "1 38813U 99025EVD 25342.71393359  .00001965  00000+0  94402-3 0  9996", "line2": "2 38813  99.3455 339.6538 0006406 124.1516 236.0267 14.20152053481937"}}, "geometry": {"type": "Point", "coordinates": [164.0976440025474, 13.426024707595916]}}, {"type": "Feature", "properties": {"norad_id": 38817, "name": "FENGYUN 1C DEB", "group": "fengyun-1c-debris", "lat": -57.5065738556412, "lon": 21.632700622640552, "alt_km": 1264.4620252110362, "timestamp": "2025-12-10T18:57:00.355393+00:00", "meta": {"OBJECT_NAME": "FENGYUN 1C DEB", "OBJECT_ID": "1999-025EVH", "EPOCH": "2025-12-09T09:57:11.671488", "MEAN_MOTION": 13.57673214, "ECCENTRICITY": 0.0291164, "INCLINATION": 98.5997, "RA_OF_ASC_NODE": 214.1716, "ARG_OF_PERICENTER": 53.0106, "MEAN_ANOMALY": 309.7311, "EPHEMERIS_TYPE": 0, "CLASSIFICATION_TYPE": "U", "NORAD_CAT_ID": 38817, "ELEMENT_SET_NO": 999, "REV_AT_EPOCH": 65789, "BSTAR": 0.0028743658, "MEAN_MOTION_DOT": 2.687e-05, "MEAN_MOTION_DDOT": 0}, "tle": {"line1": "1 38817U 99025EVH 25343.41471842  .00002687  00000+0  28744-2 0  9999", "line2": "2 38817  98.5997 214.1716 0291164  53.0106 309.7311 13.57673214657894"}}, "geometry": {"type": "Point", "coordinates": [21.632700622640552, -57.5065738556412]}}, {"type": "Feature", "properties": {"norad_id": 38818, "name": "FENGYUN 1C DEB", "group": "fengyun-1c-debris", "lat": -53.19045381881668, "lon": 52.39157937661237, "alt_km": 826.3236138358925, "timestamp": "2025-12-10T18:57:00.355403+00:00", "meta": {"OBJECT_NAME": "FENGYUN 1C DEB", "OBJECT_ID": "1999-025EVJ", "EPOCH": "2025-12-10T09:28:27.154272", "MEAN_MOTION": 14.39476027, "ECCENTRICITY": 0.0088713, "INCLINATION": 98.3, "RA_OF_ASC_NODE": 40.7606, "ARG_OF_PERICENTER": 106.4212, "MEAN_ANOMALY": 315.1477, "EPHEMERIS_TYPE": 0, "CLASSIFICATION_TYPE": "U", "NORAD_CAT_ID": 38818, "ELEMENT_SET_NO": 999, "REV_AT_EPOCH": 67214, "BSTAR": 0.00064441, "MEAN_MOTION_DOT": 2.06e-05, "MEAN_MOTION_DDOT": 0}, "tle": {"line1": "1 38818U 99025EVJ 25344.39475873  .00002060  00000+0  64441-3 0  9996", "line2": "2 38818  98.3000  40.7606 0088713 106.4212 315.1477 14.39476027672147"}}, "geometry": {"type": "Point", "coordinates": [52.39157937661237, -53.19045381881668]}}, {"type": "Feature", "properties": {"norad_id": 38819, "name": "FENGYUN 1C DEB", "group": "fengyun-1c-debris", "lat": 47.38826501488102, "lon": -31.833032697601716, "alt_km": 873.6967398644329, "timestamp": "2025-12-10T18:57:00.355413+00:00", "meta": {"OBJECT_NAME": "FENGYUN 1C DEB", "OBJECT_ID": "1999-025EVK", "EPOCH": "2025-12-05T17:44:45.178656", "MEAN_MOTION": 14.19352326, "ECCENTRICITY": 0.00793982, "INCLINATION": 98.6175, "RA_OF_ASC_NODE": 332.7424, "ARG_OF_PERICENTER": 214.8039, "MEAN_ANOMALY": 323.5095, "EPHEMERIS_TYPE": 0, "CLASSIFICATION_TYPE": "U", "NORAD_CAT_ID": 38819, "ELEMENT_SET_NO": 999, "REV_AT_EPOCH": 63378, "BSTAR": 0.00071386354, "MEAN_MOTION_DOT": 1.505e-05, "MEAN_MOTION_DDOT": 0}, "tle": {"line1": "1 38819U 99025EVK 25339.73941179  .00001505  00000+0  71386-3 0  9995", "line2": "2 38819  98.6175 332.7424 0079398 214.8039 323.5095 14.19352326633785"}}, "geometry": {"type": "Point", "coordinates": [-31.833032697601716, 47.38826501488102]}}, {"type": "Feature", "properties": {"norad_id": 38824, "name": "FENGYUN 1C DEB", "group": "fengyun-1c-debris", "lat": 65.97272541387049, "lon": -40.16486268757554, "alt_km": 843.7112456950672, "timestamp": "2025-12-10T18:57:00.355423+00:00", "meta": {"OBJECT_NAME": "FENGYUN 1C DEB", "OBJECT_ID": "1999-025EVQ", "EPOCH": "2025-11-20T14:24:21.461760", "MEAN_MOTION": 14.13875773, "ECCENTRICITY": 0.00960414, "INCLINATION": 99.2955, "RA_OF_ASC_NODE": 97.2934, "ARG_OF_PERICENTER": 263.2679, "MEAN_ANOMALY": 95.7556, "EPHEMERIS_TYPE": 0, "CLASSIFICATION_TYPE": "U", "NORAD_CAT_ID": 38824, "ELEMENT_SET_NO": 999, "REV_AT_EPOCH": 68824, "BSTAR": 0.0027703315, "MEAN_MOTION_DOT": 5.443e-05, "MEAN_MOTION_DDOT": 0}, "tle": {"line1": "1 38824U 99025EVQ 25324.60024840  .00005443  00000+0  27703-2 0  9996", "line2": "2 38824  99.2955  97.2934 0096041 263.2679  95.7556 14.13875773688246"}}, "geometry": {"type": "Point", "coordinates": [-40.16486268757554, 65.97272541387049]}}, {"type": "Feature", "properties": {"norad_id": 38827, "name": "FENGYUN 1C DEB", "group": "fengyun-1c-debris", "lat": -68.62945793297905, "lon": 165.62715326764533, "alt_km": 729.773839003411, "timestamp": "2025-12-10T18:57:00.355433+00:00", "meta": {"OBJECT_NAME": "FENGYUN 1C DEB", "OBJECT_ID": "1999-025EVT", "EPOCH": "2025-12-10T07:42:42.702048", "MEAN_MOTION": 14.32827414, "ECCENTRICITY": 0.021646, "INCLINATION": 98.3872, "RA_OF_ASC_NODE": 7.3235, "ARG_OF_PERICENTER": 320.0976, "MEAN_ANOMALY": 38.4466, "EPHEMERIS_TYPE": 0, "CLASSIFICATION_TYPE": "U", "NORAD_CAT_ID": 38827, "ELEMENT_SET_NO": 999, "REV_AT_EPOCH": 61025, "BSTAR": 0.0014001, "MEAN_MOTION_DOT": 4.908e-05, "MEAN_MOTION_DDOT": 0}, "tle": {"line1": "1 38827U 99025EVT 25344.32132757  .00004908  00000+0  14001-2 0  9999", "line2": "2 38827  98.3872   7.3235 0216460 320.0976  38.4466 14.32827414610254"}}, "geometry": {"type": "Point", "coordinates": [165.62715326764533, -68.62945793297905]}}, {"type": "Feature", "properties": {"norad_id": 38829, "name": "FENGYUN 1C DEB", "group": "fengyun-1c-debris", "lat": -2.2775628854186127, "lon": 1.1688804182056434, "alt_km": 841.7604419585305, "timestamp": "2025-12-10T18:57:00.355444+00:00", "meta": {"OBJECT_NAME": "FENGYUN 1C DEB", "OBJECT_ID": "1999-025EVV", "EPOCH": "2025-12-09T00:21:36.740448", "MEAN_MOTION": 14.09204393, "ECCENTRICITY": 0.00412839, "INCLINATION": 98.7497, "RA_OF_ASC_NODE": 359.0946, "ARG_OF_PERICENTER": 41.119, "MEAN_ANOMALY": 319.3079, "EPHEMERIS_TYPE": 0, "CLASSIFICATION_TYPE": "U", "NORAD_CAT_ID": 38829, "ELEMENT_SET_NO": 999, "REV_AT_EPOCH": 64080, "BSTAR": 0.00074064709, "MEAN_MOTION_DOT": 1.255e-05, "MEAN_MOTION_DDOT": 0}, "tle": {"line1": "1 38829U 99025EVV 25343.01500857  .00001255  00000+0  74065-3 0  9995", "line2": "2 38829  98.7497 359.0946 0041283  41.1190 319.3079 14.09204393640801"}}, "geometry": {"type": "Point", "coordinates": [1.1688804182056434, -2.2775628854186127]}}, {"type": "Feature", "properties": {"norad_id": 38832, "name": "FENGYUN 1C DEB", "group": "fengyun-1c-debris", "lat": 68.46519033296184, "lon": -126.44350171662828, "alt_km": 841.593269509638, "timestamp": "2025-12-10T18:57:00.355455+00:00", "meta": {"OBJECT_NAME": "FENGYUN 1C DEB", "OBJECT_ID": "1999-025EVY", "EPOCH": "2025-12-06T01:35:41.081280", "MEAN_MOTION": 14.04461067, "ECCENTRICITY": 0.00842955, "INCLINATION": 99.2666, "RA_OF_ASC_NODE": 24.2995, "ARG_OF_PERICENTER": 61.4582, "MEAN_ANOMALY": 299.5038, "EPHEMERIS_TYPE": 0, "CLASSIFICATION_TYPE": "U", "NORAD_CAT_ID": 38832, "ELEMENT_SET_NO": 999, "REV_AT_EPOCH": 63664, "BSTAR": 0.0018423355, "MEAN_MOTION_DOT": 2.987e-05, "MEAN_MOTION_DDOT": 0}, "tle": {"line1": "1 38832U 99025EVY 25340.06644770  .00002987  00000+0  18423-2 0  9992", "line2": "2 38832  99.2666  24.2995 0084295  61.4582 299.5038 14.04461067636643"}}, "geometry": {"type": "Point", "coordinates": [-126.44350171662828, 68.46519033296184]}}]}